ONEWEB-0331             
1 49198U 21083N   25210.89980744  .00000012  00000+0 -24871-5 0  9994
2 49198  87.9123  39.4672 0001547  99.8487 260.2819 13.18687058187535
ONEWEB-0333             
1 49199U 21083P   25211.21364994 -.00000227  00000+0 -65584-3 0  9998
2 49199  87.8963  24.2353 0001890  91.5710 268.5636 13.13468847189936
ONEWEB-0334             
1 49200U 21083Q   25210.87314795 -.00000008  00000+0 -52770-4 0  9997
2 49200  87.9281 338.6843 0002692  81.9896 278.1543 13.20771374194242
ONEWEB-0335             
1 49201U 21083R   25211.20856973 -.00000262  00000+0 -75289-3 0  9996
2 49201  87.8960  24.2237 0001732  98.0745 262.0581 13.13469716189948
ONEWEB-0336             
1 49202U 21083S   25210.95125925  .00000060  00000+0  12997-3 0  9995
2 49202  87.8963  24.2684 0001894  94.1594 265.9751 13.13469202188610
ONEWEB-0337             
1 49203U 21083T   25211.57068007 -.00000035  00000+0 -13191-3 0  9993
2 49203  87.8970  24.1447 0001589  92.7826 267.3485 13.13471700189996
ONEWEB-0338             
1 49204U 21083U   25210.84790591  .00000090  00000+0  18881-3 0  9993
2 49204  87.9291 338.6832 0002085  90.3997 269.7375 13.20770849194264
ONEWEB-0339             
1 49205U 21083V   25211.50312182 -.00000261  00000+0 -75078-3 0  9997
2 49205  87.8964  24.1445 0001741  87.7827 272.3501 13.13468667189964
